[{"OBJECT_NAME":"STARLINK-34735","OBJECT_ID":"2025-165S","EPOCH":"2026-03-09T18:25:19.548768","MEAN_MOTION":15.05649683,"ECCENTRICITY":6.511e-5,"INCLINATION":97.6029,"RA_OF_ASC_NODE":147.3265,"ARG_OF_PERICENTER":183.845,"MEAN_ANOMALY":176.2772,"EPHEMERIS_TYPE":0,"CLASSIFICATION_TYPE":"U","NORAD_CAT_ID":65072,"ELEMENT_SET_NO":999,"REV_AT_EPOCH":3480,"BSTAR":0.00053399856,"MEAN_MOTION_DOT":7.652e-5,"MEAN_MOTION_DDOT":0},{"OBJECT_NAME":"FENGYUN 1C DEB","OBJECT_ID":"1999-025FK","EPOCH":"2026-03-09T17:46:38.104320","MEAN_MOTION":14.84141288,"ECCENTRICITY":0.01116123,"INCLINATION":98.9208,"RA_OF_ASC_NODE":354.5977,"ARG_OF_PERICENTER":225.7574,"MEAN_ANOMALY":200.963,"EPHEMERIS_TYPE":0,"CLASSIFICATION_TYPE":"U","NORAD_CAT_ID":29865,"ELEMENT_SET_NO":999,"REV_AT_EPOCH":2048,"BSTAR":0.00075888297,"MEAN_MOTION_DOT":7.012e-5,"MEAN_MOTION_DDOT":0}]
